[
    {
        "Altitude(m)": 622205.8835912978,
        "Argument of Periapsis(deg)": 0.0,
        "Eccentricity": 0.0,
        "Inclination(deg)": 60.0,
        "Latitude(deg)": -52.16247985257212,
        "Longitude(deg)": -147.29971063609565,
        "Mean Anomaly(deg)": 245.4545,
        "RAAN(deg)": 85.00000000000001,
        "Satellite Name": "Test1 389",
        "Satellite Number": 389,
        "Semi-Major Axis(m)": 6980739.136638005,
        "Time(s)": 0
    },
    {
        "Altitude(m)": 622344.7904826752,
        "Argument of Periapsis(deg)": 0.00010418945913296404,
        "Eccentricity": 0.0,
        "Inclination(deg)": 60.0,
        "Latitude(deg)": -52.52006055755201,
        "Longitude(deg)": -146.51849883892802,
        "Mean Anomaly(deg)": 246.07460614546184,
        "RAAN(deg)": 84.99957995086027,
        "Satellite Name": "Test1 389",
        "Satellite Number": 389,
        "Semi-Major Axis(m)": 6980739.136638005,
        "Time(s)": 10
    }
]